CUTE-1 (CO-55)          
1 27844U 03031E   20122.50786332  .00000057  00000-0  45285-4 0  9993
2 27844  98.6832 130.9493 0009719 184.3239 175.7856 14.22234500873468
CUBESAT XI-IV (CO-57)   
1 27848U 03031J   20122.52087707  .00000044  00000-0  39629-4 0  9990
2 27848  98.6901 131.5147 0009359 196.7463 163.3407 14.21821691873308
CUBESAT XI-V            
1 28895U 05043F   20121.83712916  .00000134  00000-0  34541-4 0  9996
2 28895  98.0019 259.5461 0018108  72.9742 287.3443 14.63761962773870
CUTE-1.7+APD II (CO-65) 
1 32785U 08021C   20121.87102787  .00000233  00000-0  30739-4 0  9996
2 32785  97.5713 111.9867 0011568 294.3355  65.6654 14.88456050650862
AAUSAT-II               
1 32788U 08021F   20121.73194439  .00000096  00000-0  13774-4 0  9996
2 32788  97.4923 128.3522 0010793 209.1688 150.8932 14.95023837652183
DELFI-C3 (DO-64)        
1 32789U 08021G   20121.68192766  .00001363  00000-0  93294-4 0  9995
2 32789  97.4229 166.1447 0013707 117.0089 243.2540 15.07633257654719
SEEDS II (CO-66)        
1 32791U 08021J   20122.49092234  .00000275  00000-0  33141-4 0  9993
2 32791  97.5402 118.7191 0011674 257.8913 102.0998 14.91027091651468
SWISSCUBE               
1 35932U 09051B   20122.08652654  .00000134  00000-0  41349-4 0  9993
2 35932  98.6097 302.8512 0006342 272.7234  87.3237 14.56382966562975
BEESAT-1                
1 35933U 09051C   20121.79656027  .00000113  00000-0  36510-4 0  9990
2 35933  98.6098 304.4108 0004611 290.9276  69.1427 14.56459966562964
ITUPSAT1                
1 35935U 09051E   20121.76340898  .00000074  00000-0  28260-4 0  9994
2 35935  98.6206 304.5832 0006918 288.1064  71.9378 14.55607349562761
TISAT 1                 
1 36799U 10035E   20121.53153961  .00000381  00000-0  44351-4 0  9995
2 36799  98.1907 289.9747 0013466 123.9716 236.2783 14.91330818531980
M-CUBED & EXP-1 PRIME   
1 37855U 11061F   20121.68280786  .00000768  00000-0  45900-4 0  9991
2 37855 101.7146 185.4772 0171278 216.6467 142.2932 15.06183723464016
AEROCUBE 4.5A           
1 38767U 12048K   20122.23350247  .00000282  00000-0  37879-4 0  9999
2 38767  64.6678  23.9619 0146078 152.6108 208.2804 14.92246570 34752
AEROCUBE 4.5B           
1 38768U 12048L   20121.89045028  .00000619  00000-0  60517-4 0  9998
2 38768  64.6679 354.4237 0134875 148.9435 211.9743 14.95899716 34768
STRAND-1                
1 39090U 13009E   20122.50634418  .00000028  00000-0  24858-4 0  9993
2 39090  98.4613 327.6627 0010304  67.2362 292.9912 14.35127846375977
SOMP                    
1 39134U 13015E   20122.16776662  .00001240  00000-0  64235-4 0  9999
2 39134  64.8633  71.2811 0035746 251.2462 108.4786 15.20959319388860
BEESAT-3                
1 39135U 13015F   20122.14149462  .00000789  00000-0  47738-4 0  9996
2 39135  64.8651  94.2073 0039753 255.8652 103.8056 15.18097471388429
BEESAT-2                
1 39136U 13015G   20122.17007891  .00001003  00000-0  59349-4 0  9990
2 39136  64.8665  98.9243 0029212 281.3778  78.4067 15.17480339388334
NEE-01 PEGASO           
1 39151U 13018B   20122.48604759  .00000153  00000-0  27075-4 0  9996
2 39151  97.9696 221.6340 0015695 250.7192 109.2323 14.80156993378731
ESTCUBE 1               
1 39161U 13021C   20122.45513855  .00000175  00000-0  35459-4 0  9993
2 39161  97.9642 206.4287 0010331  36.7495 323.4417 14.72307953375123
POPACS 1                
1 39268U 13055D   20121.67556533  .00004223  00000-0  11507-3 0  9996
2 39268  81.0027 346.6773 0618095   4.2274 356.3793 14.39067747341127
POPACS 2                
1 39269U 13055E   20121.70499874  .00002886  00000-0  80858-4 0  9994
2 39269  81.0174  23.5194 0679546  99.5621 268.2966 14.25270843339184
POPACS 3                
1 39270U 13055F   20121.73664059  .00001064  00000-0  31810-4 0  9999
2 39270  81.0190  44.4808 0710800 159.7898 203.3018 14.16760666318375
ZACUBE-1 (TSHEPISOSAT)  
1 39417U 13066B   20122.07933122  .00000239  00000-0  36141-4 0  9997
2 39417  97.5650 122.7394 0060434  73.7326 287.0524 14.81258022348029
WNISAT-1                
1 39423U 13066H   20122.35656203  .00000070  00000-0  23312-4 0  9996
2 39423  97.8027  47.0568 0176199  42.6879 318.7836 14.53110725341581
TRITON-1                
1 39427U 13066M   20121.90146522  .00000182  00000-0  37170-4 0  9999
2 39427  97.7215  85.4851 0112435 229.7434 129.3898 14.67986002344684
GOMX-1                  
1 39430U 13066Q   20122.35970229  .00000257  00000-0  55757-4 0  9996
2 39430  97.7873  63.7408 0150633 333.5409  25.8157 14.59385067342932
CUBEBUG-2 (LO-74)       
1 39440U 13066AA  20122.51004966  .00000222  00000-0  37596-4 0  9994
2 39440  97.6285 107.6141 0081269 131.8869 228.9312 14.75995136346854
NEE-02 KRYSAOR          
1 39441U 13066AB  20121.87955004  .00000138  00000-0  26520-4 0  9992
2 39441  97.6355 104.5653 0082591 142.4855 218.2158 14.75005981345397
FUNCUBE-1 (AO-73)       
1 39444U 13066AE  20121.90173464  .00000302  00000-0  43165-4 0  9998
2 39444  97.5597 124.7750 0059488  66.9573 293.7899 14.82106645346326
UWE-3                   
1 39446U 13066AG  20121.90225170  .00000230  00000-0  36868-4 0  9994
2 39446  97.5971 114.2329 0071477 104.6103 256.3049 14.78529249345540
AEROCUBE 5A             
1 39465U 13072D   20121.69955859  .00004015  00000-0  35139-3 0  9996
2 39465 120.4964 350.2601 0264004 194.7572 164.5651 14.76224926 34315
AEROCUBE 5B             
1 39466U 13072E   20121.81259319  .00003966  00000-0  29959-3 0  9996
2 39466 120.4926  24.8866 0234616 203.0460 155.9923 14.85790610 34490
BRITE-CA1 (TORONTO)     
1 40020U 14033L   20122.54235640  .00000095  00000-0  24699-4 0  9991
2 40020  97.7322 313.4395 0086387 221.7255 137.7341 14.66640097313884
DUCHIFAT-1              
1 40021U 14033M   20122.36612526  .00000436  00000-0  50010-4 0  9999
2 40021  97.9408  53.3197 0014380  83.0417 277.2436 14.90877022318871
NANOSATC-BR1            
1 40024U 14033Q   20121.82559877  .00000346  00000-0  41712-4 0  9990
2 40024  97.9262  49.3090 0013680  88.6547 271.6238 14.90049783318149
QB50P1                  
1 40025U 14033R   20121.74675182  .00000299  00000-0  37654-4 0  9997
2 40025  97.9144  46.0652 0013906  95.4089 264.8714 14.89116251317993
QB50P2                  
1 40032U 14033Y   20121.84812429  .00000254  00000-0  33250-4 0  9992
2 40032  97.9038  43.7380 0013353  92.1471 268.1275 14.88643999317903
PERSEUS-M2              
1 40037U 14033AD  20122.34597600  .00000098  00000-0  17215-4 0  9993
2 40037  97.8897  39.0463 0015803 105.2006 255.0958 14.86535556318161
PERSEUS-M1              
1 40039U 14033AF  20122.47818785  .00000097  00000-0  17300-4 0  9993
2 40039  97.8864  37.9995 0015668 102.9026 257.3941 14.86155303318108
POLYITAN-1              
1 40042U 14033AJ  20121.73464890  .00000334  00000-0  41597-4 0  9998
2 40042  97.9229  46.5500 0016144  86.7256 273.5807 14.88862875317897
TIGRISAT                
1 40043U 14033AK  20121.71068927  .00000121  00000-0  25094-4 0  9996
2 40043  97.7161 340.2595 0060558 151.7355 208.7162 14.74366572315014
AEROCUBE 6A             
1 40045U 14033AM  20121.60750268  .00000213  00000-0  37620-4 0  9992
2 40045  97.7411 345.4098 0058389 143.5451 216.9756 14.75555756315053
AEROCUBE 6B             
1 40046U 14033AN  20122.15941596  .00000203  00000-0  36272-4 0  9991
2 40046  97.7325 345.2634 0057800 141.0243 219.5154 14.75540416315510
UKUBE-1                 
1 40074U 14037F   20122.44621531  .00000303  00000-0  43367-4 0  9996
2 40074  98.4549 307.9845 0003388 277.8833  82.2005 14.84242915314782
BRITE-PL2 (HEWELIUSZ)   
1 40119U 14049B   20121.66528103  .00000094  00000-0  17662-4 0  9999
2 40119  97.8927 214.3614 0015963 264.7188  95.2205 14.84494633308606
FIREBIRD 4              
1 40378U 15003C   20122.44304492  .00002534  00000-0  99787-4 0  9996
2 40378  99.0994 173.1195 0125474 110.8679 250.6039 15.19925407290173
GRIFEX                  
1 40379U 15003D   20122.23383833  .00001667  00000-0  73044-4 0  9994
2 40379  99.1070 165.0561 0134047 135.4496 225.7602 15.16291805289692
EXOCUBE (CP10)          
1 40380U 15003E   20121.77723900  .00001480  00000-0  68455-4 0  9990
2 40380  99.1144 160.2953 0138771 151.0857 209.8150 15.14268099289341
AEROCUBE 8A             
1 40659U 15025J   20122.44895679  .00011876  00000-0  13137-3 0  9997
2 40659  55.0153 150.3533 0112437  54.3322 306.8119 15.56121688 36237
AEROCUBE 8B             
1 40660U 15025K   20121.79547414  .00013077  00000-0  14263-3 0  9993
2 40660  55.0125 151.4390 0111606  54.5228 306.6162 15.56445863 36145
TIANWANG 1C (TW-1C)     
1 40926U 15051B   20122.44711737  .00021878  00000-0  23122-3 0  9993
2 40926  97.0883 173.9571 0004281 253.2291 221.0944 15.64191902259679
TIANWANG 1A (TW-1A)     
1 40928U 15051D   20122.57533524  .00003179  00000-0  75426-4 0  9994
2 40928  97.1133 151.5436 0010741   8.2520 143.3041 15.42392038258147
EXACTVIEW 9             
1 40936U 15052G   20122.02150668  .00000780  00000-0  19917-4 0  9996
2 40936   6.0040 318.5089 0010913 309.8079  50.1088 14.76564782248206
AEROCUBE 5C             
1 40965U 15058B   20122.49650708  .00000079  00000-0  29310-4 0  9994
2 40965  64.7781 286.1276 0167860  91.4619 270.5720 14.74511060 34389
AEROCUBE 7              
1 40966U 15058C   20122.41849650  .00000123  00000-0  34432-4 0  9994
2 40966  64.7781 284.9109 0166748  91.1804 270.8408 14.74808425 34377
ATHENOXAT 1             
1 41168U 15077C   20122.07529216  .00001923  00000-0  65148-4 0  9992
2 41168  14.9888  49.0129 0011468 189.0246 170.9869 15.14298120242152
GALASSIA                
1 41170U 15077E   20121.14515812  .00001865  00000-0  61357-4 0  9992
2 41170  14.9890  47.8451 0012743 202.3929 157.5835 15.14596142242087
VELOX-II                
1 41171U 15077F   20122.00492289  .00001485  00000-0  46485-4 0  9994
2 41171  14.9912  84.4646 0008815 113.3494 246.7754 15.11648863241837
